EARTHCARE               
1 59908U 24101A   24268.33645670  .00026495  00000+0  36536-3 0  9996
2 59908  96.9900  33.8949 0004617 101.7864 258.3910 15.57173267 18402
